{
  "type": "FeatureCollection",
  "name": "chicago-stations",
  "features": [
    {
      "type": "Feature",
      "properties": {
        "id": "st-chi-downtown",
        "name": "Downtown Loop",
        "status": "planned",
        "capacity_pph": 12000,
        "depth_m": 14,
        "notes": "Central interchange hub for all regional spokes — west corridor via Oak Park to Oakbrook."
      },
      "geometry": {
        "type": "Point",
        "coordinates": [
          -87.6298,
          41.8781
        ]
      }
    },
    {
      "type": "Feature",
      "properties": {
        "id": "st-chi-ohare",
        "name": "O'Hare International (ORD)",
        "status": "planned",
        "capacity_pph": 10000,
        "depth_m": 16,
        "notes": "Northwest airport terminus — twin-tube links include Downtown and Lombard."
      },
      "geometry": {
        "type": "Point",
        "coordinates": [
          -87.9073,
          41.9742
        ]
      }
    },
    {
      "type": "Feature",
      "properties": {
        "id": "st-chi-midway",
        "name": "Midway International (MDW)",
        "status": "planned",
        "capacity_pph": 7000,
        "depth_m": 15,
        "notes": "Southwest-side airport terminus."
      },
      "geometry": {
        "type": "Point",
        "coordinates": [
          -87.7522,
          41.7868
        ]
      }
    },
    {
      "type": "Feature",
      "properties": {
        "id": "st-chi-oakpark",
        "name": "Oak Park",
        "status": "planned",
        "capacity_pph": 5000,
        "depth_m": 14,
        "notes": "Near-west hub in Oak Park along the I-290 corridor — twin-tube links to Downtown, Oakbrook, O'Hare, and Midway."
      },
      "geometry": {
        "type": "Point",
        "coordinates": [
          -87.7945,
          41.8728
        ]
      }
    },
    {
      "type": "Feature",
      "properties": {
        "id": "st-chi-oakbrook",
        "name": "Oakbrook Center",
        "status": "planned",
        "capacity_pph": 4500,
        "depth_m": 14,
        "notes": "West-suburban retail / employment node — east to Oak Park/Downtown, west/northwest to Lombard and Woodridge."
      },
      "geometry": {
        "type": "Point",
        "coordinates": [
          -87.9531,
          41.8503
        ]
      }
    },
    {
      "type": "Feature",
      "properties": {
        "id": "st-chi-lombard",
        "name": "Lombard",
        "status": "planned",
        "capacity_pph": 5000,
        "depth_m": 14,
        "notes": "DuPage hub in Lombard (near Yorktown corridor) — twin-tube links to Oakbrook, Woodridge, and O'Hare."
      },
      "geometry": {
        "type": "Point",
        "coordinates": [
          -88.0078,
          41.8801
        ]
      }
    },
    {
      "type": "Feature",
      "properties": {
        "id": "st-chi-woodridge",
        "name": "Woodridge",
        "status": "planned",
        "capacity_pph": 6000,
        "depth_m": 14,
        "notes": "Woodridge hub at the I-88 / I-355 interchange — park-and-ride access; links to Oakbrook, Naperville, and Lombard."
      },
      "geometry": {
        "type": "Point",
        "coordinates": [
          -88.047,
          41.791
        ]
      }
    },
    {
      "type": "Feature",
      "properties": {
        "id": "st-chi-naperville",
        "name": "Naperville",
        "status": "planned",
        "capacity_pph": 5500,
        "depth_m": 14,
        "notes": "Western suburban hub — links via Woodridge toward Oakbrook/Downtown, twin-tube to Woodfield, and south via Bolingbrook toward Joliet."
      },
      "geometry": {
        "type": "Point",
        "coordinates": [
          -88.1535,
          41.7508
        ]
      }
    },
    {
      "type": "Feature",
      "properties": {
        "id": "st-chi-bolingbrook",
        "name": "Bolingbrook",
        "status": "planned",
        "capacity_pph": 4500,
        "depth_m": 14,
        "notes": "Southwest suburban hub in Bolingbrook, splitting the Naperville–Joliet twin-tube corridor along the I-55 approach."
      },
      "geometry": {
        "type": "Point",
        "coordinates": [
          -88.0684,
          41.6986
        ]
      }
    },
    {
      "type": "Feature",
      "properties": {
        "id": "st-chi-woodfield",
        "name": "Woodfield Mall",
        "status": "planned",
        "capacity_pph": 5000,
        "depth_m": 14,
        "notes": "Northwest suburban interchange (Schaumburg) — twin-tube links to O'Hare, Naperville, and Evanston."
      },
      "geometry": {
        "type": "Point",
        "coordinates": [
          -88.0369,
          42.0464
        ]
      }
    },
    {
      "type": "Feature",
      "properties": {
        "id": "st-chi-southshore",
        "name": "South Shore Border Hub",
        "status": "planned",
        "capacity_pph": 4000,
        "depth_m": 15,
        "notes": "Southeast metro hub near Illinois–Indiana border — links to Downtown and Joliet."
      },
      "geometry": {
        "type": "Point",
        "coordinates": [
          -87.5205,
          41.5735
        ]
      }
    },
    {
      "type": "Feature",
      "properties": {
        "id": "st-chi-joliet",
        "name": "Joliet",
        "status": "planned",
        "capacity_pph": 4500,
        "depth_m": 14,
        "notes": "Southwest suburban hub — twin-tube links to Midway, South Shore Border, and Bolingbrook (toward Naperville); no Downtown corridor."
      },
      "geometry": {
        "type": "Point",
        "coordinates": [
          -88.0817,
          41.525
        ]
      }
    },
    {
      "type": "Feature",
      "properties": {
        "id": "st-chi-evanston",
        "name": "Evanston",
        "status": "planned",
        "capacity_pph": 5000,
        "depth_m": 14,
        "notes": "North-shore lakefront hub (Evanston / Northwestern area) — twin-tube links to Downtown and Woodfield."
      },
      "geometry": {
        "type": "Point",
        "coordinates": [
          -87.6695,
          42.052
        ]
      }
    }
  ]
}
